{"type": "FeatureCollection", "features": [ {"type": "Feature", "properties": {"norad_id": 30332, "name": "FENGYUN 1C DEB", "group": "fengyun-1c-debris", "lat": -3.4476154371469243, "lon": 131.59071355459753, "alt_km": 921.6082606887267, "timestamp": "2025-12-06T18:50:10.444070+00:00", "meta": {"OBJECT_NAME": "FENGYUN 1C DEB", "OBJECT_ID": "1999-025AAT", "EPOCH": "2025-12-06T04:08:31.199712", "MEAN_MOTION": 13.76701115, "ECCENTRICITY": 0.01779833, "INCLINATION": 99.7142, "RA_OF_ASC_NODE": 311.557, "ARG_OF_PERICENTER": 119.99, "MEAN_ANOMALY": 268.7085, "EPHEMERIS_TYPE": 0, "CLASSIFICATION_TYPE": "U", "NORAD_CAT_ID": 30332, "ELEMENT_SET_NO": 999, "REV_AT_EPOCH": 94625, "BSTAR": 0.00055236771, "MEAN_MOTION_DOT": 5.64e-06, "MEAN_MOTION_DDOT": 0}, "tle": {"line1": "1 30332U 99025AAT 25340.17258333  .00000564  00000+0  55237-3 0  9991", "line2": "2 30332  99.7142 311.5570 0177983 119.9900 268.7085 13.76701115946255"}}, "geometry": {"type": "Point", "coordinates": [131.59071355459753, -3.4476154371469243]}}, {"type": "Feature", "properties": {"norad_id": 30334, "name": "FENGYUN 1C DEB", "group": "fengyun-1c-debris", "lat": 22.451805343181075, "lon": -95.71636828066303, "alt_km": 1018.3303029059916, "timestamp": "2025-12-06T18:50:10.444079+00:00", "meta": {"OBJECT_NAME": "FENGYUN 1C DEB", "OBJECT_ID": "1999-025AAV", "EPOCH": "2025-12-05T18:32:43.103040", "MEAN_MOTION": 13.92343961, "ECCENTRICITY": 0.01448011, "INCLINATION": 99.0217, "RA_OF_ASC_NODE": 79.5339, "ARG_OF_PERICENTER": 1.0989, "MEAN_ANOMALY": 124.9955, "EPHEMERIS_TYPE": 0, "CLASSIFICATION_TYPE": "U", "NORAD_CAT_ID": 30334, "ELEMENT_SET_NO": 999, "REV_AT_EPOCH": 95124, "BSTAR": 0.0018129083, "MEAN_MOTION_DOT": 2.494e-05, "MEAN_MOTION_DDOT": 0}, "tle": {"line1": "1 30334U 99025AAV 25339.77272110  .00002494  00000+0  18129-2 0  9998", "line2": "2 30334  99.0217  79.5339 0144801   1.0989 124.9955 13.92343961951241"}}, "geometry": {"type": "Point", "coordinates": [-95.71636828066303, 22.451805343181075]}}, {"type": "Feature", "properties": {"norad_id": 30335, "name": "FENGYUN 1C DEB", "group": "fengyun-1c-debris", "lat": 5.307126330659695, "lon": 153.05972236871975, "alt_km": 804.7459541807339, "timestamp": "2025-12-06T18:50:10.444090+00:00", "meta": {"OBJECT_NAME": "FENGYUN 1C DEB", "OBJECT_ID": "1999-025AAW", "EPOCH": "2025-12-06T06:04:37.777728", "MEAN_MOTION": 14.01357871, "ECCENTRICITY": 0.01324964, "INCLINATION": 98.905, "RA_OF_ASC_NODE": 331.7065, "ARG_OF_PERICENTER": 149.5914, "MEAN_ANOMALY": 223.7237, "EPHEMERIS_TYPE": 0, "CLASSIFICATION_TYPE": "U", "NORAD_CAT_ID": 30335, "ELEMENT_SET_NO": 999, "REV_AT_EPOCH": 96500, "BSTAR": 0.00021184453, "MEAN_MOTION_DOT": 3.02e-06, "MEAN_MOTION_DDOT": 0}, "tle": {"line1": "1 30335U 99025AAW 25340.25321502  .00000302  00000+0  21184-3 0  9996", "line2": "2 30335  98.9050 331.7065 0132496 149.5914 223.7237 14.01357871965003"}}, "geometry": {"type": "Point", "coordinates": [153.05972236871975, 5.307126330659695]}}, {"type": "Feature", "properties": {"norad_id": 30336, "name": "FENGYUN 1C DEB", "group": "fengyun-1c-debris", "lat": -5.678918678765278, "lon": 2.7707638894078803, "alt_km": 804.3068094786458, "timestamp": "2025-12-06T18:50:10.444100+00:00", "meta": {"OBJECT_NAME": "FENGYUN 1C DEB", "OBJECT_ID": "1999-025AAX", "EPOCH": "2025-12-06T00:24:02.073024", "MEAN_MOTION": 14.19290247, "ECCENTRICITY": 0.0043895, "INCLINATION": 98.6011, "RA_OF_ASC_NODE": 1.1627, "ARG_OF_PERICENTER": 27.893, "MEAN_ANOMALY": 4.1243, "EPHEMERIS_TYPE": 0, "CLASSIFICATION_TYPE": "U", "NORAD_CAT_ID": 30336, "ELEMENT_SET_NO": 999, "REV_AT_EPOCH": 97507, "BSTAR": 0.00056920815, "MEAN_MOTION_DOT": 1.163e-05, "MEAN_MOTION_DDOT": 0}, "tle": {"line1": "1 30336U 99025AAX 25340.01669066  .00001163  00000+0  56921-3 0  9994", "line2": "2 30336  98.6011   1.1627 0043895  27.8930   4.1243 14.19290247975078"}}, "geometry": {"type": "Point", "coordinates": [2.7707638894078803, -5.678918678765278]}}, {"type": "Feature", "properties": {"norad_id": 30338, "name": "FENGYUN 1C DEB", "group": "fengyun-1c-debris", "lat": 48.019694756728114, "lon": -119.9914001847007, "alt_km": 693.7175133044857, "timestamp": "2025-12-06T18:50:10.444110+00:00", "meta": {"OBJECT_NAME": "FENGYUN 1C DEB", "OBJECT_ID": "1999-025AAZ", "EPOCH": "2025-12-06T05:01:59.882304", "MEAN_MOTION": 14.47393437, "ECCENTRICITY": 0.0272059, "INCLINATION": 98.46, "RA_OF_ASC_NODE": 49.9117, "ARG_OF_PERICENTER": 213.7292, "MEAN_ANOMALY": 165.5305, "EPHEMERIS_TYPE": 0, "CLASSIFICATION_TYPE": "U", "NORAD_CAT_ID": 30338, "ELEMENT_SET_NO": 999, "REV_AT_EPOCH": 98050, "BSTAR": 0.0019680222, "MEAN_MOTION_DOT": 0.00011471, "MEAN_MOTION_DDOT": 0}, "tle": {"line1": "1 30338U 99025AAZ 25340.20972086  .00011471  00000+0  19680-2 0  9999", "line2": "2 30338  98.4600  49.9117 0272059 213.7292 165.5305 14.47393437980500"}}, "geometry": {"type": "Point", "coordinates": [-119.9914001847007, 48.019694756728114]}}, {"type": "Feature", "properties": {"norad_id": 30339, "name": "FENGYUN 1C DEB", "group": "fengyun-1c-debris", "lat": -18.733322575091965, "lon": -96.1220391435797, "alt_km": 771.6061601286428, "timestamp": "2025-12-06T18:50:10.444120+00:00", "meta": {"OBJECT_NAME": "FENGYUN 1C DEB", "OBJECT_ID": "1999-025ABA", "EPOCH": "2025-12-06T02:02:17.191680", "MEAN_MOTION": 14.37999461, "ECCENTRICITY": 0.00216492, "INCLINATION": 98.9749, "RA_OF_ASC_NODE": 86.2195, "ARG_OF_PERICENTER": 105.1066, "MEAN_ANOMALY": 72.1885, "EPHEMERIS_TYPE": 0, "CLASSIFICATION_TYPE": "U", "NORAD_CAT_ID": 30339, "ELEMENT_SET_NO": 999, "REV_AT_EPOCH": 97331, "BSTAR": 0.0041760346, "MEAN_MOTION_DOT": 0.0001264, "MEAN_MOTION_DDOT": 0}, "tle": {"line1": "1 30339U 99025ABA 25340.08492120  .00012640  00000+0  41760-2 0  9995", "line2": "2 30339  98.9749  86.2195 0021649 105.1066  72.1885 14.37999461973315"}}, "geometry": {"type": "Point", "coordinates": [-96.1220391435797, -18.733322575091965]}}, {"type": "Feature", "properties": {"norad_id": 30340, "name": "FENGYUN 1C DEB", "group": "fengyun-1c-debris", "lat": 58.69267237616568, "lon": 22.451521888555334, "alt_km": 873.2056059998549, "timestamp": "2025-12-06T18:50:10.444130+00:00", "meta": {"OBJECT_NAME": "FENGYUN 1C DEB", "OBJECT_ID": "1999-025ABB", "EPOCH": "2025-12-06T03:17:38.692896", "MEAN_MOTION": 14.04593871, "ECCENTRICITY": 0.01459482, "INCLINATION": 99.0023, "RA_OF_ASC_NODE": 36.9181, "ARG_OF_PERICENTER": 153.1196, "MEAN_ANOMALY": 235.737, "EPHEMERIS_TYPE": 0, "CLASSIFICATION_TYPE": "U", "NORAD_CAT_ID": 30340, "ELEMENT_SET_NO": 999, "REV_AT_EPOCH": 96688, "BSTAR": 4.9517789e-05, "MEAN_MOTION_DOT": 4.4e-07, "MEAN_MOTION_DDOT": 0}, "tle": {"line1": "1 30340U 99025ABB 25340.13725339  .00000044  00000+0  49518-4 0  9990", "line2": "2 30340  99.0023  36.9181 0145948 153.1196 235.7370 14.04593871966886"}}, "geometry": {"type": "Point", "coordinates": [22.451521888555334, 58.69267237616568]}}, {"type": "Feature", "properties": {"norad_id": 30341, "name": "FENGYUN 1C DEB", "group": "fengyun-1c-debris", "lat": -2.6106240058389076, "lon": -131.14467772164784, "alt_km": 773.3273970846503, "timestamp": "2025-12-06T18:50:10.444139+00:00", "meta": {"OBJECT_NAME": "FENGYUN 1C DEB", "OBJECT_ID": "1999-025ABC", "EPOCH": "2025-12-06T04:28:56.241984", "MEAN_MOTION": 14.3393024, "ECCENTRICITY": 0.00497235, "INCLINATION": 99.2181, "RA_OF_ASC_NODE": 227.7941, "ARG_OF_PERICENTER": 75.6732, "MEAN_ANOMALY": 76.6898, "EPHEMERIS_TYPE": 0, "CLASSIFICATION_TYPE": "U", "NORAD_CAT_ID": 30341, "ELEMENT_SET_NO": 999, "REV_AT_EPOCH": 96987, "BSTAR": 0.0045043285, "MEAN_MOTION_DOT": 0.00012707, "MEAN_MOTION_DDOT": 0}, "tle": {"line1": "1 30341U 99025ABC 25340.18676206  .00012707  00000+0  45043-2 0  9990", "line2": "2 30341  99.2181 227.7941 0049723  75.6732  76.6898 14.33930240969872"}}, "geometry": {"type": "Point", "coordinates": [-131.14467772164784, -2.6106240058389076]}}, {"type": "Feature", "properties": {"norad_id": 30342, "name": "FENGYUN 1C DEB", "group": "fengyun-1c-debris", "lat": -63.81211061996823, "lon": -41.66088580917022, "alt_km": 1006.7207776415717, "timestamp": "2025-12-06T18:50:10.444150+00:00", "meta": {"OBJECT_NAME": "FENGYUN 1C DEB", "OBJECT_ID": "1999-025ABD", "EPOCH": "2025-12-06T00:50:59.936352", "MEAN_MOTION": 13.80028201, "ECCENTRICITY": 0.01683291, "INCLINATION": 100.1957, "RA_OF_ASC_NODE": 158.9966, "ARG_OF_PERICENTER": 139.8541, "MEAN_ANOMALY": 342.6934, "EPHEMERIS_TYPE": 0, "CLASSIFICATION_TYPE": "U", "NORAD_CAT_ID": 30342, "ELEMENT_SET_NO": 999, "REV_AT_EPOCH": 94796, "BSTAR": 0.0010832578, "MEAN_MOTION_DOT": 1.202e-05, "MEAN_MOTION_DDOT": 0}, "tle": {"line1": "1 30342U 99025ABD 25340.03541593  .00001202  00000+0  10833-2 0  9992", "line2": "2 30342 100.1957 158.9966 0168329 139.8541 342.6934 13.80028201947962"}}, "geometry": {"type": "Point", "coordinates": [-41.66088580917022, -63.81211061996823]}}, {"type": "Feature", "properties": {"norad_id": 30344, "name": "FENGYUN 1C DEB", "group": "fengyun-1c-debris", "lat": -57.36365539167577, "lon": -131.48188217701954, "alt_km": 728.6374042439174, "timestamp": "2025-12-06T18:50:10.444160+00:00", "meta": {"OBJECT_NAME": "FENGYUN 1C DEB", "OBJECT_ID": "1999-025ABF", "EPOCH": "2025-12-06T04:38:32.968032", "MEAN_MOTION": 14.51556759, "ECCENTRICITY": 0.00081595, "INCLINATION": 98.8207, "RA_OF_ASC_NODE": 61.9299, "ARG_OF_PERICENTER": 139.4597, "MEAN_ANOMALY": 250.1459, "EPHEMERIS_TYPE": 0, "CLASSIFICATION_TYPE": "U", "NORAD_CAT_ID": 30344, "ELEMENT_SET_NO": 999, "REV_AT_EPOCH": 97982, "BSTAR": 0.0040222216, "MEAN_MOTION_DOT": 0.00016091, "MEAN_MOTION_DDOT": 0}, "tle": {"line1": "1 30344U 99025ABF 25340.19343713  .00016091  00000+0  40222-2 0  9992", "line2": "2 30344  98.8207  61.9299 0008159 139.4597 250.1459 14.51556759979826"}}, "geometry": {"type": "Point", "coordinates": [-131.48188217701954, -57.36365539167577]}}]}